[Satellite]
VERSION=1.1
NAME=Foresail-1
NICKNAME=Foresail-1
TLE1=1 52766U 22057AL  22335.86570370  .00004768  00000-0  25929-3 0  9998
TLE2=2 52766  97.5364  88.6976 0011883 297.1631 158.8497 15.14899595 28767
STATUS=0
